[{"OBJECT_NAME":"STARLINK-3305","OBJECT_ID":"2021-125L","EPOCH":"2025-09-03T18:40:07.891968","MEAN_MOTION":15.08843901,"ECCENTRICITY":0.00012469,"INCLINATION":53.2195,"RA_OF_ASC_NODE":8.1348,"ARG_OF_PERICENTER":95.245,"MEAN_ANOMALY":264.8685,"EPHEMERIS_TYPE":0,"CLASSIFICATION_TYPE":"U","NORAD_CAT_ID":50166,"ELEMENT_SET_NO":999,"REV_AT_EPOCH":20837,"BSTAR":7.6007758e-5,"MEAN_MOTION_DOT":9.22e-6,"MEAN_MOTION_DDOT":0},{"OBJECT_NAME":"STARLINK-3271","OBJECT_ID":"2021-125M","EPOCH":"2025-09-03T16:31:39.430848","MEAN_MOTION":15.08834461,"ECCENTRICITY":0.00014441,"INCLINATION":53.22,"RA_OF_ASC_NODE":18.6115,"ARG_OF_PERICENTER":90.662,"MEAN_ANOMALY":269.4538,"EPHEMERIS_TYPE":0,"CLASSIFICATION_TYPE":"U","NORAD_CAT_ID":50167,"ELEMENT_SET_NO":999,"REV_AT_EPOCH":20822,"BSTAR":-2.1078978e-5,"MEAN_MOTION_DOT":-6.23e-6,"MEAN_MOTION_DDOT":0},{"OBJECT_NAME":"STARLINK-3296","OBJECT_ID":"2021-125N","EPOCH":"2025-09-03T20:31:26.983488","MEAN_MOTION":15.08837865,"ECCENTRICITY":0.00012218,"INCLINATION":53.2194,"RA_OF_ASC_NODE":7.94,"ARG_OF_PERICENTER":75.8518,"MEAN_ANOMALY":284.261,"EPHEMERIS_TYPE":0,"CLASSIFICATION_TYPE":"U","NORAD_CAT_ID":50168,"ELEMENT_SET_NO":999,"REV_AT_EPOCH":20839,"BSTAR":4.8200954e-5,"MEAN_MOTION_DOT":4.79e-6,"MEAN_MOTION_DDOT":0},{"OBJECT_NAME":"STARLINK-3301","OBJECT_ID":"2021-125P","EPOCH":"2025-09-03T14:50:54.494592","MEAN_MOTION":15.08835128,"ECCENTRICITY":0.00013337,"INCLINATION":53.2197,"RA_OF_ASC_NODE":8.9157,"ARG_OF_PERICENTER":85.4198,"MEAN_ANOMALY":274.6947,"EPHEMERIS_TYPE":0,"CLASSIFICATION_TYPE":"U","NORAD_CAT_ID":50169,"ELEMENT_SET_NO":999,"REV_AT_EPOCH":20836,"BSTAR":2.7506107e-5,"MEAN_MOTION_DOT":1.5e-6,"MEAN_MOTION_DDOT":0},{"OBJECT_NAME":"STARLINK-3245","OBJECT_ID":"2021-125Q","EPOCH":"2025-09-03T15:22:42.120192","MEAN_MOTION":15.08834358,"ECCENTRICITY":0.0001415,"INCLINATION":53.2203,"RA_OF_ASC_NODE":8.82,"ARG_OF_PERICENTER":92.4113,"MEAN_ANOMALY":267.7041,"EPHEMERIS_TYPE":0,"CLASSIFICATION_TYPE":"U","NORAD_CAT_ID":50170,"ELEMENT_SET_NO":999,"REV_AT_EPOCH":20835,"BSTAR":-1.2681017e-5,"MEAN_MOTION_DOT":-4.9e-6,"MEAN_MOTION_DDOT":0},{"OBJECT_NAME":"STARLINK-3286","OBJECT_ID":"2021-125R","EPOCH":"2025-09-03T20:30:03.679200","MEAN_MOTION":15.08839071,"ECCENTRICITY":0.00012323,"INCLINATION":53.2199,"RA_OF_ASC_NODE":7.8581,"ARG_OF_PERICENTER":81.5954,"MEAN_ANOMALY":278.5178,"EPHEMERIS_TYPE":0,"CLASSIFICATION_TYPE":"U","NORAD_CAT_ID":50171,"ELEMENT_SET_NO":999,"REV_AT_EPOCH":20839,"BSTAR":4.3948084e-5,"MEAN_MOTION_DOT":4.12e-6,"MEAN_MOTION_DDOT":0},{"OBJECT_NAME":"STARLINK-3287","OBJECT_ID":"2021-125S","EPOCH":"2025-09-03T15:12:05.436000","MEAN_MOTION":15.08849358,"ECCENTRICITY":0.00012487,"INCLINATION":53.2194,"RA_OF_ASC_NODE":8.8535,"ARG_OF_PERICENTER":89.8638,"MEAN_ANOMALY":270.2497,"EPHEMERIS_TYPE":0,"CLASSIFICATION_TYPE":"U","NORAD_CAT_ID":50172,"ELEMENT_SET_NO":999,"REV_AT_EPOCH":20839,"BSTAR":0.00014784764,"MEAN_MOTION_DOT":2.066e-5,"MEAN_MOTION_DDOT":0},{"OBJECT_NAME":"STARLINK-3289","OBJECT_ID":"2021-125T","EPOCH":"2025-09-03T19:11:54.376224","MEAN_MOTION":15.08841563,"ECCENTRICITY":0.00016125,"INCLINATION":53.2194,"RA_OF_ASC_NODE":358.1673,"ARG_OF_PERICENTER":65.1934,"MEAN_ANOMALY":294.9226,"EPHEMERIS_TYPE":0,"CLASSIFICATION_TYPE":"U","NORAD_CAT_ID":50173,"ELEMENT_SET_NO":999,"REV_AT_EPOCH":20853,"BSTAR":3.2197949e-5,"MEAN_MOTION_DOT":2.24e-6,"MEAN_MOTION_DDOT":0},{"OBJECT_NAME":"STARLINK-3292","OBJECT_ID":"2021-125U","EPOCH":"2025-09-03T14:23:54.141216","MEAN_MOTION":15.08829073,"ECCENTRICITY":0.00016704,"INCLINATION":53.2191,"RA_OF_ASC_NODE":4.6116,"ARG_OF_PERICENTER":65.1259,"MEAN_ANOMALY":294.9907,"EPHEMERIS_TYPE":0,"CLASSIFICATION_TYPE":"U","NORAD_CAT_ID":50174,"ELEMENT_SET_NO":999,"REV_AT_EPOCH":20846,"BSTAR":-0.00020819916,"MEAN_MOTION_DOT":-3.599e-5,"MEAN_MOTION_DDOT":0},{"OBJECT_NAME":"STARLINK-3291","OBJECT_ID":"2021-125V","EPOCH":"2025-09-03T15:28:00.689088","MEAN_MOTION":15.08829493,"ECCENTRICITY":0.00011659,"INCLINATION":53.2198,"RA_OF_ASC_NODE":8.7987,"ARG_OF_PERICENTER":78.4793,"MEAN_ANOMALY":281.633,"EPHEMERIS_TYPE":0,"CLASSIFICATION_TYPE":"U","NORAD_CAT_ID":50175,"ELEMENT_SET_NO":999,"REV_AT_EPOCH":20836,"BSTAR":-4.528263e-6,"MEAN_MOTION_DOT":-3.6e-6,"MEAN_MOTION_DDOT":0},{"OBJECT_NAME":"STARLINK-3293","OBJECT_ID":"2021-125W","EPOCH":"2025-09-03T15:01:30.234432","MEAN_MOTION":15.08836607,"ECCENTRICITY":0.00013379,"INCLINATION":53.2191,"RA_OF_ASC_NODE":8.8835,"ARG_OF_PERICENTER":83.8621,"MEAN_ANOMALY":276.2523,"EPHEMERIS_TYPE":0,"CLASSIFICATION_TYPE":"U","NORAD_CAT_ID":50176,"ELEMENT_SET_NO":999,"REV_AT_EPOCH":20840,"BSTAR":-1.2729786e-5,"MEAN_MOTION_DOT":-4.9e-6,"MEAN_MOTION_DDOT":0},{"OBJECT_NAME":"STARLINK-3282","OBJECT_ID":"2021-125X","EPOCH":"2025-09-03T15:17:24.279648","MEAN_MOTION":15.08834253,"ECCENTRICITY":0.00012798,"INCLINATION":53.2201,"RA_OF_ASC_NODE":8.8341,"ARG_OF_PERICENTER":88.2682,"MEAN_ANOMALY":271.8457,"EPHEMERIS_TYPE":0,"CLASSIFICATION_TYPE":"U","NORAD_CAT_ID":50177,"ELEMENT_SET_NO":999,"REV_AT_EPOCH":20836,"BSTAR":1.899106e-6,"MEAN_MOTION_DOT":-2.58e-6,"MEAN_MOTION_DDOT":0},{"OBJECT_NAME":"STARLINK-3284","OBJECT_ID":"2021-125Y","EPOCH":"2025-09-03T15:34:39.624672","MEAN_MOTION":15.08831587,"ECCENTRICITY":0.00012359,"INCLINATION":53.2192,"RA_OF_ASC_NODE":8.637,"ARG_OF_PERICENTER":90.7628,"MEAN_ANOMALY":269.3506,"EPHEMERIS_TYPE":0,"CLASSIFICATION_TYPE":"U","NORAD_CAT_ID":50178,"ELEMENT_SET_NO":999,"REV_AT_EPOCH":20840,"BSTAR":-2.0434874e-5,"MEAN_MOTION_DOT":-6.13e-6,"MEAN_MOTION_DDOT":0},{"OBJECT_NAME":"STARLINK-3283","OBJECT_ID":"2021-125Z","EPOCH":"2025-09-03T15:06:48.281472","MEAN_MOTION":15.08836831,"ECCENTRICITY":0.00013518,"INCLINATION":53.2194,"RA_OF_ASC_NODE":8.8666,"ARG_OF_PERICENTER":91.5646,"MEAN_ANOMALY":268.5501,"EPHEMERIS_TYPE":0,"CLASSIFICATION_TYPE":"U","NORAD_CAT_ID":50179,"ELEMENT_SET_NO":999,"REV_AT_EPOCH":20836,"BSTAR":-8.572955e-6,"MEAN_MOTION_DOT":-4.24e-6,"MEAN_MOTION_DDOT":0},{"OBJECT_NAME":"STARLINK-3265","OBJECT_ID":"2021-125AA","EPOCH":"2025-09-03T17:57:45.490752","MEAN_MOTION":15.0884082,"ECCENTRICITY":0.00015214,"INCLINATION":53.2202,"RA_OF_ASC_NODE":8.341,"ARG_OF_PERICENTER":100.4251,"MEAN_ANOMALY":259.6912,"EPHEMERIS_TYPE":0,"CLASSIFICATION_TYPE":"U","NORAD_CAT_ID":50180,"ELEMENT_SET_NO":999,"REV_AT_EPOCH":20842,"BSTAR":-9.988461e-6,"MEAN_MOTION_DOT":-4.47e-6,"MEAN_MOTION_DDOT":0},{"OBJECT_NAME":"STARLINK-3285","OBJECT_ID":"2021-125AB","EPOCH":"2025-09-03T14:36:23.366592","MEAN_MOTION":15.08838413,"ECCENTRICITY":0.00014338,"INCLINATION":53.2211,"RA_OF_ASC_NODE":8.9693,"ARG_OF_PERICENTER":102.636,"MEAN_ANOMALY":257.4793,"EPHEMERIS_TYPE":0,"CLASSIFICATION_TYPE":"U","NORAD_CAT_ID":50181,"ELEMENT_SET_NO":999,"REV_AT_EPOCH":20836,"BSTAR":3.2181121e-5,"MEAN_MOTION_DOT":2.24e-6,"MEAN_MOTION_DDOT":0}]
