STARLINK-3305           
1 50166U 21125L   25246.77786912  .00000922  00000+0  76008-4 0  9992
2 50166  53.2195   8.1348 0001246  95.2450 264.8685 15.08843901208375
STARLINK-3271           
1 50167U 21125M   25246.68865082 -.00000623  00000+0 -21079-4 0  9997
2 50167  53.2200  18.6115 0001444  90.6620 269.4538 15.08834461208222
STARLINK-3296           
1 50168U 21125N   25246.85517342  .00000479  00000+0  48201-4 0  9993
2 50168  53.2194   7.9400 0001221  75.8518 284.2610 15.08837865208392
STARLINK-3301           
1 50169U 21125P   25246.61868628  .00000150  00000+0  27506-4 0  9995
2 50169  53.2197   8.9157 0001333  85.4198 274.6947 15.08835128208364
STARLINK-3245           
1 50170U 21125Q   25246.64076528 -.00000490  00000+0 -12681-4 0  9997
2 50170  53.2203   8.8200 0001415  92.4113 267.7041 15.08834358208359
STARLINK-3286           
1 50171U 21125R   25246.85420925  .00000412  00000+0  43948-4 0  9997
2 50171  53.2199   7.8581 0001232  81.5954 278.5178 15.08839071208396
STARLINK-3287           
1 50172U 21125S   25246.63339625  .00002066  00000+0  14785-3 0  9993
2 50172  53.2194   8.8535 0001248  89.8638 270.2497 15.08849358208391
STARLINK-3289           
1 50173U 21125T   25246.79993491  .00000224  00000+0  32198-4 0  9991
2 50173  53.2194 358.1673 0001612  65.1934 294.9226 15.08841563208536
STARLINK-3292           
1 50174U 21125U   25246.59993219 -.00003599  00000+0 -20820-3 0  9996
2 50174  53.2191   4.6116 0001670  65.1259 294.9907 15.08829073208463
STARLINK-3291           
1 50175U 21125V   25246.64445242 -.00000360  00000+0 -45283-5 0  9996
2 50175  53.2198   8.7987 0001165  78.4793 281.6330 15.08829493208369
STARLINK-3293           
1 50176U 21125W   25246.62604438 -.00000490  00000+0 -12730-4 0  9993
2 50176  53.2191   8.8835 0001337  83.8621 276.2523 15.08836607208401
STARLINK-3282           
1 50177U 21125X   25246.63708657 -.00000258  00000+0  18991-5 0  9990
2 50177  53.2201   8.8341 0001279  88.2682 271.8457 15.08834253208364
STARLINK-3284           
1 50178U 21125Y   25246.64906973 -.00000613  00000+0 -20435-4 0  9994
2 50178  53.2192   8.6370 0001235  90.7628 269.3506 15.08831587208403
STARLINK-3283           
1 50179U 21125Z   25246.62972548 -.00000424  00000+0 -85730-5 0  9994
2 50179  53.2194   8.8666 0001351  91.5646 268.5501 15.08836831208362
STARLINK-3265           
1 50180U 21125AA  25246.74844318 -.00000447  00000+0 -99885-5 0  9993
2 50180  53.2202   8.3410 0001521 100.4251 259.6912 15.08840820208424
STARLINK-3285           
1 50181U 21125AB  25246.60860378  .00000224  00000+0  32181-4 0  9999
2 50181  53.2211   8.9693 0001433 102.6360 257.4793 15.08838413208362
